NORAD_CAT_ID,OBJECT_NAME,OBJECT_TYPE,EPOCH,MEAN_MOTION,ECCENTRICITY,INCLINATION,RA_OF_ASC_NODE,ARG_OF_PERICENTER,MEAN_ANOMALY,BSTAR,MEAN_MOTION_DOT,MEAN_MOTION_DDOT,TLE_LINE0,TLE_LINE1,TLE_LINE2,SEMIMAJOR_AXIS,PERIOD,APOGEE,PERIGEE,DECAYED
53592.0,STARLINK-4672,PAYLOAD,2022-10-27 22:00:00,15.0885816,0.0001376999999999,53.2153,0.4209,71.8089,157.9613,-0.000144,-2.58e-05,0.0,0 STARLINK-4672,1 53592U 22104E   22300.91667824 -.00002580  00000-0 -14400-3 0  9992,2 53592  53.2153   0.4209 0001377  71.8089 157.9613 15.08858160  1309,6917.825,95.436,540.6419999999998,538.737,0.0
53592.0,STARLINK-4672,PAYLOAD,2022-10-28 14:00:01,15.08841557,0.0001496999999999,53.215,357.4295,66.1046,186.9568,-0.00025286,-4.31e-05,0.0,0 STARLINK-4672,1 53592U 22104E   22301.58335648 -.00004310  00000-0 -25286-3 0  9999,2 53592  53.2150 357.4295 0001497  66.1046 186.9568 15.08841557  1302,6917.876,95.437,540.776,538.705,0.0
53592.0,STARLINK-4672,PAYLOAD,2022-10-28 22:00:01,15.08837836,0.0001284,53.2148,355.9313,71.0665,193.5961,-0.0014189,-0.00022797,0.0,0 STARLINK-4672,1 53592U 22104E   22301.91668981 -.00022797  00000-0 -14189-2 0  9993,2 53592  53.2148 355.9313 0001284  71.0665 193.5961 15.08837836  9561,6917.887,95.438,540.64,538.864,0.0
53592.0,STARLINK-4672,PAYLOAD,2022-10-29 12:00:00,15.08822568,0.0001373,53.2146,353.314,63.5346,131.34799999999998,0.0025204999999999,0.00040035,0.0,0 STARLINK-4672,1 53592U 22104E   22302.50001157  .00040035  00000-0  25205-2 0  9999,2 53592  53.2146 353.3140 0001373  63.5346 131.3480 15.08822568  1306,6917.934,95.439,540.749,538.849,0.0
53592.0,STARLINK-4672,PAYLOAD,2022-10-29 22:00:01,15.08862156,0.0001225,53.2145,351.4416,68.2508,231.1936,-0.0005327,-8.761e-05,0.0,0 STARLINK-4672,1 53592U 22104E   22302.91668981 -.00008761  00000-0 -53270-3 0  9994,2 53592  53.2145 351.4416 0001225  68.2508 231.1936 15.08862156  1300,6917.813,95.436,540.525,538.83,0.0
53592.0,STARLINK-4672,PAYLOAD,2022-10-30 00:00:00,15.08849802,0.0001200999999999,53.2143,351.0672,69.9801,322.311,0.00085309,0.00013319,0.0,0 STARLINK-4672,1 53592U 22104E   22303.00001157  .00013319  00000-0  85309-3 0  9992,2 53592  53.2143 351.0672 0001201  69.9801 322.3110 15.08849802  9731,6917.85,95.437,540.5459999999998,538.885,0.0
53592.0,STARLINK-4672,PAYLOAD,2022-10-30 14:00:01,15.08806243,0.0001378,53.2145,348.4503,59.2363,263.3676,0.0010770999999999,0.0001688,0.0,0 STARLINK-4672,1 53592U 22104E   22303.58334491  .00016880  00000-0  10771-2 0  9991,2 53592  53.2145 348.4503 0001378  59.2363 263.3676 15.08806243  1304,6917.984,95.44,540.802,538.895,0.0
53592.0,STARLINK-4672,PAYLOAD,2022-10-30 22:00:01,15.0879141,0.0001314,53.2147,346.952,66.8453,267.3959,0.0012211,0.00019173,0.0,0 STARLINK-4672,1 53592U 22104E   22303.91668981  .00019173  00000-0  12211-2 0  9991,2 53592  53.2147 346.9520 0001314  66.8453 267.3959 15.08791410  1309,6918.029,95.441,540.803,538.985,0.0
53592.0,STARLINK-4672,PAYLOAD,2022-10-31 14:00:01,15.08801625,0.0001489,53.2148,343.9609,58.7897,298.4977,0.0035545,0.00056677,0.0,0 STARLINK-4672,1 53592U 22104E   22304.58334491  .00056677  00000-0  35545-2 0  9996,2 53592  53.2148 343.9609 0001489  58.7897 298.4977 15.08801625  1305,6917.998000000001,95.44,540.893,538.8330000000002,0.0
53592.0,STARLINK-4672,PAYLOAD,2022-10-31 22:00:01,15.08821266,0.0001343,53.2151,342.4626,65.4996,303.4344,0.00056183,8.66e-05,0.0,0 STARLINK-4672,1 53592U 22104E   22304.91668981  .00008660  00000-0  56183-3 0  9998,2 53592  53.2151 342.4626 0001343  65.4996 303.4344 15.08821266 10023,6917.938,95.439,540.732,538.874,0.0
53592.0,STARLINK-4672,PAYLOAD,2022-11-01 14:00:01,15.0883145,0.00014,53.2163,339.4725,57.9818,334.0563,0.0011959,0.00018792,0.0,0 STARLINK-4672,1 53592U 22104E   22305.58334491  .00018792  00000-0  11959-2 0  9996,2 53592  53.2163 339.4725 0001400  57.9818 334.0563 15.08831450  1305,6917.906999999997,95.438,540.74,538.803,0.0
53592.0,STARLINK-4672,PAYLOAD,2022-11-01 22:00:00,15.08819551,0.0001439,53.2155,337.9733,70.047,333.6189,0.002888,0.00045949,0.0,0 STARLINK-4672,1 53592U 22104E   22305.91667824  .00045949  00000-0  28880-2 0  9997,2 53592  53.2155 337.9733 0001439  70.0470 333.6189 15.08819551  1307,6917.943,95.439,540.803,538.812,0.0
53592.0,STARLINK-4672,PAYLOAD,2022-11-02 06:00:00,15.08868567,0.0001511,53.2156,336.4778,67.6382,347.6148,-0.0033137,-0.00052681,0.0,0 STARLINK-4672,1 53592U 22104E   22306.25001157 -.00052681  00000-0 -33137-2 0  9990,2 53592  53.2156 336.4778 0001511  67.6382 347.6148 15.08868567 10228,6917.793000000002,95.436,540.703,538.613,0.0
53592.0,STARLINK-4672,PAYLOAD,2022-11-02 14:00:01,15.08837592,0.0001505,53.2155,334.9824,58.3354,8.5228,0.00093945,0.00014694,0.0,0 STARLINK-4672,1 53592U 22104E   22306.58334491  .00014694  00000-0  93945-3 0  9990,2 53592  53.2155 334.9824 0001505  58.3354   8.5228 15.08837592  1306,6917.888000000001,95.438,540.794,538.712,0.0
53592.0,STARLINK-4672,PAYLOAD,2022-11-02 22:00:00,15.08797529,0.0001274999999999,53.2155,333.4841,68.1699,10.2721,0.0028826,0.00045834,0.0,0 STARLINK-4672,1 53592U 22104E   22306.91667824  .00045834  00000-0  28826-2 0  9991,2 53592  53.2155 333.4841 0001275  68.1699  10.2721 15.08797529 10329,6918.01,95.44,540.757,538.993,0.0
53592.0,STARLINK-4672,PAYLOAD,2022-11-03 14:00:01,15.08835827,0.0001458,53.215,330.4929,62.3397,39.2815,0.00078353,0.00012202,0.0,0 STARLINK-4672,1 53592U 22104E   22307.58334491  .00012202  00000-0  78353-3 0  9990,2 53592  53.2150 330.4929 0001458  62.3397  39.2815 15.08835827  1309,6917.893,95.438,540.7669999999998,538.75,0.0
53592.0,STARLINK-4672,PAYLOAD,2022-11-03 22:00:00,15.08805178,0.0001393,53.2156,328.9949,74.2868,38.9417,0.0030405,0.00048388,0.0,0 STARLINK-4672,1 53592U 22104E   22307.91667824  .00048388  00000-0  30405-2 0  9995,2 53592  53.2156 328.9949 0001393  74.2868  38.9417 15.08805178 10470,6917.986999999999,95.44,540.816,538.888,0.0
53592.0,STARLINK-4672,PAYLOAD,2022-11-04 00:00:00,15.08809151,0.0001433,53.2157,328.6207,76.6348,129.4854,0.0033826,0.00053912,0.0,0 STARLINK-4672,1 53592U 22104E   22308.00001157  .00053912  00000-0  33826-2 0  9996,2 53592  53.2157 328.6207 0001433  76.6348 129.4854 15.08809151  1307,6917.975,95.44,540.831,538.8480000000002,0.0
53592.0,STARLINK-4672,PAYLOAD,2022-11-04 14:00:01,15.08803591,0.0001278,53.2168,326.0048,65.8971,70.4914,0.0033813,0.00053883,0.0,0 STARLINK-4672,1 53592U 22104E   22308.58334491  .00053883  00000-0  33813-2 0  9992,2 53592  53.2168 326.0048 0001278  65.8971  70.4914 15.08803591 10576,6917.9919999999975,95.44,540.741,538.9730000000002,0.0
53592.0,STARLINK-4672,PAYLOAD,2022-11-04 22:00:01,15.08837689,0.0001294,53.2143,324.5055,74.9035,73.2027,-0.00024625,-4.205e-05,0.0,0 STARLINK-4672,1 53592U 22104E   22308.91668981 -.00004205  00000-0 -24625-3 0  9991,2 53592  53.2143 324.5055 0001294  74.9035  73.2027 15.08837689 10627,6917.887,95.438,540.648,538.857,0.0
53592.0,STARLINK-4672,PAYLOAD,2022-11-05 00:00:00,15.08843357,0.0001324,53.2144,324.1313,77.1974,163.743,-0.0013544,-0.0002178,0.0,0 STARLINK-4672,1 53592U 22104E   22309.00001157 -.00021780  00000-0 -13544-2 0  9992,2 53592  53.2144 324.1313 0001324  77.1974 163.7430 15.08843357  1309,6917.87,95.437,540.651,538.819,0.0
53592.0,STARLINK-4672,PAYLOAD,2022-11-05 14:00:01,15.08807431,0.0001401,53.2137,321.5141,65.6673,105.5961,-0.00077217,-0.00012545,0.0,0 STARLINK-4672,1 53592U 22104E   22309.58335648 -.00012545  00000-0 -77217-3 0  9997,2 53592  53.2137 321.5141 0001401  65.6673 105.5961 15.08807431 10727,6917.98,95.44,540.814,538.876,0.0
53592.0,STARLINK-4672,PAYLOAD,2022-11-05 22:00:01,15.08779577,0.0001288,53.2136,320.0161,75.40899999999998,107.4121,0.0035645,0.00056804,0.0,0 STARLINK-4672,1 53592U 22104E   22309.91668981  .00056804  00000-0  35645-2 0  9995,2 53592  53.2136 320.0161 0001288  75.4090 107.4121 15.08779577  1309,6918.065,95.441,540.821,539.039,0.0
53592.0,STARLINK-4672,PAYLOAD,2022-11-06 06:00:00,15.08820941,0.0001395999999999,53.2136,318.5211,70.5851,123.7183,-0.00034682,-5.8e-05,0.0,0 STARLINK-4672,1 53592U 22104E   22310.25001157 -.00005800  00000-0 -34682-3 0  9993,2 53592  53.2136 318.5211 0001396  70.5851 123.7183 15.08820941 10826,6917.939,95.439,540.769,538.8380000000002,0.0
53592.0,STARLINK-4672,PAYLOAD,2022-11-06 14:00:01,15.08829959,0.0001414,53.2133,317.0247,65.8054,140.0637,0.00064432,9.978e-05,0.0,0 STARLINK-4672,1 53592U 22104E   22310.58334491  .00009978  00000-0  64432-3 0  9993,2 53592  53.2133 317.0247 0001414  65.8054 140.0637 15.08829959  1306,6917.911,95.438,540.754,538.798,0.0
53592.0,STARLINK-4672,PAYLOAD,2022-11-06 22:00:00,15.08818906,0.0001346,53.2133,315.5265,75.0461,142.4154,0.0033836,0.00053943,0.0,0 STARLINK-4672,1 53592U 22104E   22310.91667824  .00053943  00000-0  33836-2 0  9993,2 53592  53.2133 315.5265 0001346  75.0461 142.4154 15.08818906 10926,6917.945,95.439,540.741,538.879,0.0
53592.0,STARLINK-4672,PAYLOAD,2022-11-07 14:00:01,15.08844601,0.0001369,53.2134,312.5348,64.1963,176.4554,9.9839e-05,1.302e-05,0.0,0 STARLINK-4672,1 53592U 22104E   22311.58334491  .00001302  00000-0  99839-4 0  9997,2 53592  53.2134 312.5348 0001369  64.1963 176.4554 15.08844601 11021,6917.866,95.437,540.678,538.784,0.0
53592.0,STARLINK-4672,PAYLOAD,2022-11-07 22:00:00,15.08841962,0.0001377,53.2136,311.0365,74.1047,178.1521,0.00082149,0.00012811,0.0,0 STARLINK-4672,1 53592U 22104E   22311.91667824  .00012811  00000-0  82149-3 0  9995,2 53592  53.2136 311.0365 0001377  74.1047 178.1521 15.08841962  1309,6917.874,95.437,540.692,538.7869999999998,0.0
53592.0,STARLINK-4672,PAYLOAD,2022-11-08 10:00:01,15.08844445,0.000157,53.214,308.7937,66.8157,22.9505,0.004622,0.00074054,0.0,0 STARLINK-4672,1 53592U 22104E   22312.41668981  .00074054  00000-0  46220-2 0  9992,2 53592  53.2140 308.7937 0001570  66.8157  22.9505 15.08844445 11158,6917.8669999999975,95.437,540.818,538.646,0.0
